NORAD_CAT_ID,OBJECT_NAME,OBJECT_TYPE,EPOCH,MEAN_MOTION,ECCENTRICITY,INCLINATION,RA_OF_ASC_NODE,ARG_OF_PERICENTER,MEAN_ANOMALY,BSTAR,MEAN_MOTION_DOT,MEAN_MOTION_DDOT,TLE_LINE0,TLE_LINE1,TLE_LINE2,SEMIMAJOR_AXIS,PERIOD,APOGEE,PERIGEE,DECAYED
50206.0,STARLINK-3258,PAYLOAD,2022-01-01 22:00:00,15.82645626,0.0001057,53.2179,294.4839,93.5363,208.2015,-0.0042703,-0.00832992,0.0,0 STARLINK-3258,1 50206U 21125BC  22001.91667824 -.00832992  00000-0 -42703-2 0  9995,2 50206  53.2179 294.4839 0001057  93.5363 208.2015 15.82645626  2761,6701.099,90.987,323.673,322.256,0.0
50206.0,STARLINK-3258,PAYLOAD,2022-01-02 02:00:01,15.82346599,0.0001162,53.2176,293.6488,100.4308,71.3519,-0.0042775,-0.0082362,0.0,0 STARLINK-3258,1 50206U 21125BC  22002.08334491 -.00823620  00000-0 -42775-2 0  9992,2 50206  53.2176 293.6488 0001162 100.4308  71.3519 15.82346599  2791,6701.944,91.004,324.587,323.03,0.0
50206.0,STARLINK-3258,PAYLOAD,2022-01-04 01:50:15,15.79320372,0.0001533,53.22,283.6801,90.5213,269.5985,-0.0023846,-0.00418391,0.0,0 STARLINK-3258,1 50206U 21125BC  22004.07657149 -.00418391  00000-0 -23846-2 0  9994,2 50206  53.2200 283.6801 0001533  90.5213 269.5985 15.79320372  3834,6710.502,91.178,333.396,331.338,0.0
50206.0,STARLINK-3258,PAYLOAD,2022-01-06 00:59:07,15.76004219,0.000137,53.2191,273.904,105.2737,254.8436,-0.0027931,-0.0042208,0.0,0 STARLINK-3258,1 50206U 21125BC  22006.04106288 -.00422080  00000-0 -27931-2 0  9995,2 50206  53.2191 273.9040 0001370 105.2737 254.8436 15.76004219  4143,6719.9119999999975,91.37,342.6980000000001,340.856,0.0
50206.0,STARLINK-3258,PAYLOAD,2022-01-06 07:04:34,15.75603498,0.0001499,53.2189,272.6434,90.6584,269.4609,-0.0027292,-0.00405997,0.0,0 STARLINK-3258,1 50206U 21125BC  22006.29484816 -.00405997  00000-0 -27292-2 0  9996,2 50206  53.2189 272.6434 0001499  90.6584 269.4609 15.75603498  4183,6721.051,91.394,343.9240000000001,341.909,0.0
50206.0,STARLINK-3258,PAYLOAD,2022-01-06 20:47:15,15.74608946,0.0001638,53.2189,269.8114,113.8032,246.316,-0.0028047,-0.0039976,0.0,0 STARLINK-3258,1 50206U 21125BC  22006.86615259 -.00399760  00000-0 -28047-2 0  9995,2 50206  53.2189 269.8114 0001638 113.8032 246.3160 15.74608946  4275,6723.880999999999,91.451,346.848,344.645,0.0
50206.0,STARLINK-3258,PAYLOAD,2022-01-07 01:21:36,15.74403576,0.0001564,53.2187,268.8683,115.8805,244.2377,-0.0028929,-0.00408235,0.0,0 STARLINK-3258,1 50206U 21125BC  22007.05666708 -.00408235  00000-0 -28929-2 0  9999,2 50206  53.2187 268.8683 0001564 115.8805 244.2377 15.74403576  4304,6724.465999999999,91.463,347.3830000000001,345.279,0.0
50206.0,STARLINK-3258,PAYLOAD,2022-01-07 10:30:24,15.73843815,0.000112,53.2186,266.9816,138.7762,221.3343,-0.0027058,-0.00374173,0.0,0 STARLINK-3258,1 50206U 21125BC  22007.43778827 -.00374173  00000-0 -27058-2 0  9992,2 50206  53.2186 266.9816 0001120 138.7762 221.3343 15.73843815  4362,6726.06,91.496,348.67900000000014,347.172,0.0
50206.0,STARLINK-3258,PAYLOAD,2022-01-09 22:00:00,15.73333858,0.0001069,53.2177,254.7166,93.8871,273.5413,-0.00084884,-0.00118756,0.0,0 STARLINK-3258,1 50206U 21125BC  22009.91667824 -.00118756  00000-0 -84884-3 0  9995,2 50206  53.2177 254.7166 0001069  93.8871 273.5413 15.73333858  4750,6727.514,91.525,350.098,348.659,0.0
50206.0,STARLINK-3258,PAYLOAD,2022-01-10 14:00:01,15.73168778,9.74e-05,53.2175,251.4156,105.8065,79.6342,-5.848e-06,-1.438e-05,0.0,0 STARLINK-3258,1 50206U 21125BC  22010.58334491 -.00001438  00000-0 -58480-5 0  9994,2 50206  53.2175 251.4156 0000974 105.8065  79.6342 15.73168778  4858,6727.984,91.535,350.504,349.194,0.0
50206.0,STARLINK-3258,PAYLOAD,2022-01-10 22:00:00,15.73160023,9.22e-05,53.2178,249.7682,92.4618,181.8585,1.6184e-05,1.649e-05,0.0,0 STARLINK-3258,1 50206U 21125BC  22010.91667824  .00001649  00000-0  16184-4 0  9996,2 50206  53.2178 249.7682 0000922  92.4618 181.8585 15.73160023  3740,6728.009,91.536,350.494,349.254,0.0
50206.0,STARLINK-3258,PAYLOAD,2022-01-11 14:00:01,15.73181353,8.809999999999999e-05,53.2178,246.4678,103.4661,348.6538,0.00045012,0.00062975,0.0,0 STARLINK-3258,1 50206U 21125BC  22011.58334491  .00062975  00000-0  45012-3 0  9991,2 50206  53.2178 246.4678 0000881 103.4661 348.6538 15.73181353  5016,6727.948,91.534,350.406,349.221,0.0
50206.0,STARLINK-3258,PAYLOAD,2022-01-11 22:00:00,15.73219482,8.93e-05,53.2176,244.8203,87.4756,93.5745,7.305300000000001e-05,9.653e-05,0.0,0 STARLINK-3258,1 50206U 21125BC  22011.91667824  .00009653  00000-0  73053-4 0  9998,2 50206  53.2176 244.8203 0000893  87.4756  93.5745 15.73219482  3715,6727.84,91.532,350.305,349.10400000000016,0.0
50206.0,STARLINK-3258,PAYLOAD,2022-01-12 06:00:00,15.73277046,9.12e-05,53.2171,243.1705,88.4921,181.5011,-0.00079851,-0.00111572,0.0,0 STARLINK-3258,1 50206U 21125BC  22012.25001157 -.00111572  00000-0 -79851-3 0  9994,2 50206  53.2171 243.1705 0000912  88.4921 181.5011 15.73277046  5116,6727.676,91.529,350.154,348.927,0.0
50206.0,STARLINK-3258,PAYLOAD,2022-01-12 14:00:01,15.73172692,0.0001111,53.2173,241.5194,100.8098,258.1623,0.000474,0.00066351,0.0,0 STARLINK-3258,1 50206U 21125BC  22012.58334491  .00066351  00000-0  47400-3 0  9997,2 50206  53.2173 241.5194 0001111 100.8098 258.1623 15.73172692  3735,6727.973000000001,91.535,350.586,349.091,0.0
50206.0,STARLINK-3258,PAYLOAD,2022-01-12 22:00:00,15.73208863,0.0001129,53.2175,239.8722,87.4208,0.4654,8.1483e-05,0.00010835,0.0,0 STARLINK-3258,1 50206U 21125BC  22012.91667824  .00010835  00000-0  81483-4 0  9999,2 50206  53.2175 239.8722 0001129  87.4208   0.4654 15.73208863  5224,6727.87,91.533,350.494,348.975,0.0
50206.0,STARLINK-3258,PAYLOAD,2022-01-13 14:00:01,15.73170728,0.000134,53.2174,236.5714,95.7582,170.0225,0.0003278,0.00045577,0.0,0 STARLINK-3258,1 50206U 21125BC  22013.58334491  .00045577  00000-0  32780-3 0  9990,2 50206  53.2174 236.5714 0001340  95.7582 170.0225 15.73170728  5327,6727.979,91.535,350.745,348.94199999999995,0.0
50206.0,STARLINK-3258,PAYLOAD,2022-01-13 22:00:00,15.73198201,0.0001361999999999,53.217,234.9242,85.2305,269.4733,0.00010708,0.00014432,0.0,0 STARLINK-3258,1 50206U 21125BC  22013.91667824  .00014432  00000-0  10708-3 0  9998,2 50206  53.2170 234.9242 0001362  85.2305 269.4733 15.73198201  3693,6727.9,91.533,350.682,348.849,0.0
50206.0,STARLINK-3258,PAYLOAD,2022-01-14 14:00:01,15.73240137,0.000118,53.2167,231.6233,98.5775,74.0183,-0.00033439,-0.00047365,0.0,0 STARLINK-3258,1 50206U 21125BC  22014.58334491 -.00047365  00000-0 -33439-3 0  9992,2 50206  53.2167 231.6233 0001180  98.5775  74.0183 15.73240137  3717,6727.781,91.531,350.44,348.852,0.0
50206.0,STARLINK-3258,PAYLOAD,2022-01-14 22:00:00,15.73191677,0.0001107999999999,53.2167,229.976,82.7188,178.83900000000003,0.00019339,0.00026597,0.0,0 STARLINK-3258,1 50206U 21125BC  22014.91667824  .00026597  00000-0  19339-3 0  9993,2 50206  53.2167 229.9760 0001108  82.7188 178.8390 15.73191677  3723,6727.919,91.534,350.529,349.038,0.0
50206.0,STARLINK-3258,PAYLOAD,2022-01-15 06:00:00,15.73206314,0.0001194,53.2175,228.3157,108.1176,242.1305,-2.4707e-05,-4.086e-05,0.0,0 STARLINK-3258,1 50206U 21125BC  22015.25001157 -.00004086  00000-0 -24707-4 0  9999,2 50206  53.2175 228.3157 0001194 108.1176 242.1305 15.73206314  5582,6727.877,91.533,350.545,348.939,0.0
50206.0,STARLINK-3258,PAYLOAD,2022-01-15 14:00:01,15.73227832,0.0001243,53.2166,226.675,92.6389,346.8812,-8.824200000000001e-05,-0.00013,0.0,0 STARLINK-3258,1 50206U 21125BC  22015.58335648 -.00013000  00000-0 -88242-4 0  9990,2 50206  53.2166 226.6750 0001243  92.6389 346.8812 15.73227832  5640,6727.816,91.532,350.517,348.845,0.0
50206.0,STARLINK-3258,PAYLOAD,2022-01-15 22:00:01,15.731691,0.0001134,53.2161,225.0276,79.2562,89.2278,0.00032516,0.00045199,0.0,0 STARLINK-3258,1 50206U 21125BC  22015.91668981  .00045199  00000-0  32516-3 0  9990,2 50206  53.2161 225.0276 0001134  79.2562  89.2278 15.73169100  3717,6727.983,91.535,350.611,349.085,0.0
50206.0,STARLINK-3258,PAYLOAD,2022-01-16 06:00:00,15.73217141,0.0001133,53.2155,223.3771,84.5803,172.7455,-0.00060148,-0.00084253,0.0,0 STARLINK-3258,1 50206U 21125BC  22016.25001157 -.00084253  00000-0 -60148-3 0  9992,2 50206  53.2155 223.3771 0001133  84.5803 172.7455 15.73217141  5746,6727.846,91.532,350.474,348.949,0.0
50206.0,STARLINK-3258,PAYLOAD,2022-01-16 14:00:01,15.73205834,0.0001122,53.2158,221.7268,92.9545,253.2858,-2.8598000000000013e-05,-4.632e-05,0.0,0 STARLINK-3258,1 50206U 21125BC  22016.58334491 -.00004632  00000-0 -28598-4 0  9995,2 50206  53.2158 221.7268 0001122  92.9545 253.2858 15.73205834  5799,6727.879,91.533,350.49800000000016,348.98900000000015,0.0
50206.0,STARLINK-3258,PAYLOAD,2022-01-16 22:00:00,15.7314269,0.0001002,53.2159,220.0795,77.7563,357.4117,0.00040292,0.00056167,0.0,0 STARLINK-3258,1 50206U 21125BC  22016.91667824  .00056167  00000-0  40292-3 0  9993,2 50206  53.2159 220.0795 0001002  77.7563 357.4117 15.73142690  3710,6728.059,91.537,350.598,349.249,0.0
50206.0,STARLINK-3258,PAYLOAD,2022-01-17 00:00:00,15.73127932,9.49e-05,53.2159,219.6673,72.4645,114.928,0.0007627,0.00107465,0.0,0 STARLINK-3258,1 50206U 21125BC  22017.00001157  .00107465  00000-0  76270-3 0  9998,2 50206  53.2159 219.6673 0000949  72.4645 114.9280 15.73127932  5868,6728.101,91.537,350.60400000000016,349.327,0.0
50206.0,STARLINK-3258,PAYLOAD,2022-01-17 06:00:00,15.73190477,9.61e-05,53.2159,218.4287,79.9612,84.054,-0.00022832,-0.00032524,0.0,0 STARLINK-3258,1 50206U 21125BC  22017.25001157 -.00032524  00000-0 -22832-3 0  9995,2 50206  53.2159 218.4287 0000961  79.9612  84.0540 15.73190477  5901,6727.922,91.534,350.434,349.141,0.0
50206.0,STARLINK-3258,PAYLOAD,2022-01-17 14:00:01,15.73167194,0.000114,53.2158,216.7787,87.2116,165.7091,-8.896799999999999e-05,-0.00013068,0.0,0 STARLINK-3258,1 50206U 21125BC  22017.58334491 -.00013068  00000-0 -88968-4 0  9996,2 50206  53.2158 216.7787 0001140  87.2116 165.7091 15.73167194  3712,6727.989000000001,91.535,350.621,349.087,0.0
